STARLINK-2558           
1 48282U 21036G   26068.24086134 -.00001547  00000+0 -40137-4 0  9993
2 48282  53.1601  77.4576 0001162 117.5485 242.5634 15.30182377268345
ICEYE-X31               
1 58288U 23174AJ  26068.50520622  .00018478  00000+0  61995-3 0  9992
2 58288  97.3851 144.4967 0001505 334.3114  25.8052 15.30932354129482
